         0.0000000       15.4906600     6797.5961205        0.0001127       51.6464000      294.3439000       97.3066000       51.6464000
      1440.0000000       15.4906904     6797.5872251        0.0001127       51.6464000      111.5903067       92.3566784       51.6464000
      2880.0000000       15.4907208     6797.5783288        0.0001127       51.6464000      288.8383049       87.4067341       51.6464000
      4320.0000000       15.4907512     6797.5694315        0.0001126       51.6464000      106.1054652       82.4567672       51.6464000
      5760.0000000       15.4907816     6797.5605334        0.0001126       51.6464000      283.3765215       77.5067776       51.6464000
      7200.0000000       15.4908120     6797.5516343        0.0001126       51.6464000      100.6644050       72.5567654       51.6464000
      8640.0000000       15.4908425     6797.5427343        0.0001126       51.6464000      277.9585535       67.6067305       51.6464000
     10080.0000000       15.4908729     6797.5338333        0.0001126       51.6464000       95.2671408       62.6566730       51.6464000
     11520.0000000       15.4909033     6797.5249315        0.0001126       51.6464000      272.5844051       57.7065927       51.6464000
     12960.0000000       15.4909338     6797.5160287        0.0001125       51.6464000       89.9136876       52.7564899       51.6464000
     14400.0000000       15.4909642     6797.5071250        0.0001125       51.6464000      267.2540798       47.8063643       51.6464000
     15840.0000000       15.4909946     6797.4982203        0.0001125       51.6464000       84.6040602       42.8562162       51.6464000
     17280.0000000       15.4910251     6797.4893148        0.0001125       51.6464000      261.9675816       37.9060453       51.6464000
     18720.0000000       15.4910555     6797.4804083        0.0001124       51.6464000       79.3382735       32.9558518       51.6464000
     20160.0000000       15.4910860     6797.4715009        0.0001125       51.6464000      256.7249143       28.0056357       51.6464000
     21600.0000000       15.4911164     6797.4625926        0.0001124       51.6464000       74.1163426       23.0553968       51.6464000
     23040.0000000       15.4911469     6797.4536833        0.0001124       51.6464000      251.5260818       18.1051354       51.6464000
     24480.0000000       15.4911773     6797.4447732        0.0001124       51.6464000       68.9382821       13.1548512       51.6464000
     25920.0000000       15.4912078     6797.4358621        0.0001124       51.6464000      246.3710882        8.2045444       51.6464000
     27360.0000000       15.4912383     6797.4269501        0.0001123       51.6464000       63.8041069        3.2542150       51.6464000
     28517.4124992       15.4912627     6797.4197863        0.0001124       51.6464000      226.7342569      359.2753283       51.6464000


 1 25544U 98067A   20365.58390537 +.00001153  00000 0  28835-4 0 0999                                                                                                                                                                                                                                                                                                                                                                                                                                                            
 2 25544  51.6463  96.6947 0001116 168.4778 262.8570 15.4923854026246                                                                                                                                                                                                                                                                                                                                                                                                                                                            

         0.0000000       15.4906674     6797.5939552        0.0001116       51.6463000      262.8570000       96.6947000       51.6463000
      1440.0000000       15.4906995     6797.5845642        0.0001116       51.6463000       80.0979549       91.7447612       51.6463000
      2880.0000000       15.4907316     6797.5751721        0.0001116       51.6463000      257.3551173       86.7947986       51.6463000
      4320.0000000       15.4907637     6797.5657791        0.0001115       51.6463000       74.6179166       81.8448120       51.6463000
      5760.0000000       15.4907958     6797.5563850        0.0001115       51.6463000      251.8994543       76.8948014       51.6463000
      7200.0000000       15.4908279     6797.5469898        0.0001115       51.6463000       69.1841331       71.9447670       51.6463000
      8640.0000000       15.4908600     6797.5375937        0.0001115       51.6463000      246.4900155       66.9947086       51.6463000
     10080.0000000       15.4908922     6797.5281965        0.0001114       51.6463000       63.7966204       62.0446264       51.6463000
     11520.0000000       15.4909243     6797.5187983        0.0001115       51.6463000      241.1268059       57.0945202       51.6463000
     12960.0000000       15.4909564     6797.5093991        0.0001114       51.6463000       58.4553944       52.1443900       51.6463000
     14400.0000000       15.4909885     6797.4999988        0.0001114       51.6463000      235.8098308       47.1942360       51.6463000
     15840.0000000       15.4910207     6797.4905975        0.0001114       51.6463000       53.1604710       42.2440580       51.6463000
     17280.0000000       15.4910528     6797.4811952        0.0001114       51.6463000      230.5390956       37.2938561       51.6463000
     18720.0000000       15.4910850     6797.4717918        0.0001113       51.6463000       47.9118653       32.3436303       51.6463000
     20160.0000000       15.4911171     6797.4623875        0.0001113       51.6463000      225.3146060       27.3933806       51.6463000
     21600.0000000       15.4911493     6797.4529820        0.0001113       51.6463000       42.7095925       22.4431070       51.6463000
     23040.0000000       15.4911814     6797.4435756        0.0001113       51.6463000      220.1363682       17.4928094       51.6463000
     24480.0000000       15.4912136     6797.4341681        0.0001113       51.6463000       37.5536672       12.5424879       51.6463000
     25920.0000000       15.4912457     6797.4247596        0.0001113       51.6463000      215.0043889        7.5921425       51.6463000
     27360.0000000       15.4912779     6797.4153501        0.0001112       51.6463000       32.4441038        2.6417732       51.6463000
     28339.4382192       15.4912998     6797.4089495        0.0001112       51.6463000      226.0508867      359.2746894       51.6463000


 1 25544U 98067A   20365.72917878 +.00001350  00000 0  32383-4 0 0999                                                                                                                                                                                                                                                                                                                                                                                                                                                            
 2 25544  51.6465  95.9760 0001071 166.6511 355.4491 15.4924002626248                                                                                                                                                                                                                                                                                                                                                                                                                                                            

